[{"OBJECT_NAME":"HELIOS 1B","OBJECT_ID":"1999-064A","EPOCH":"2026-04-20T14:43:53.976288","MEAN_MOTION":14.87846796,"ECCENTRICITY":5.351e-5,"INCLINATION":98.1654,"RA_OF_ASC_NODE":14.0825,"ARG_OF_PERICENTER":46.8321,"MEAN_ANOMALY":313.2939,"EPHEMERIS_TYPE":0,"CLASSIFICATION_TYPE":"U","NORAD_CAT_ID":25977,"ELEMENT_SET_NO":999,"REV_AT_EPOCH":69149,"BSTAR":0.00011339189,"MEAN_MOTION_DOT":9.78e-6,"MEAN_MOTION_DDOT":0},{"OBJECT_NAME":"TERRA","OBJECT_ID":"1999-068A","EPOCH":"2026-04-20T21:51:14.112864","MEAN_MOTION":14.61056243,"ECCENTRICITY":0.00034364,"INCLINATION":97.9511,"RA_OF_ASC_NODE":162.7139,"ARG_OF_PERICENTER":66.6958,"MEAN_ANOMALY":38.065,"EPHEMERIS_TYPE":0,"CLASSIFICATION_TYPE":"U","NORAD_CAT_ID":25994,"ELEMENT_SET_NO":999,"REV_AT_EPOCH":40124,"BSTAR":6.378443e-5,"MEAN_MOTION_DOT":2.69e-6,"MEAN_MOTION_DDOT":0},{"OBJECT_NAME":"SL-16 R/B","OBJECT_ID":"2000-006B","EPOCH":"2026-04-20T20:06:43.252704","MEAN_MOTION":14.15828431,"ECCENTRICITY":0.00147044,"INCLINATION":71.0043,"RA_OF_ASC_NODE":9.2127,"ARG_OF_PERICENTER":121.642,"MEAN_ANOMALY":238.614,"EPHEMERIS_TYPE":0,"CLASSIFICATION_TYPE":"U","NORAD_CAT_ID":26070,"ELEMENT_SET_NO":999,"REV_AT_EPOCH":35452,"BSTAR":4.3340989e-5,"MEAN_MOTION_DOT":3.8e-7,"MEAN_MOTION_DDOT":0},{"OBJECT_NAME":"TITAN 4B R/B","OBJECT_ID":"2000-047B","EPOCH":"2026-04-20T21:32:33.164448","MEAN_MOTION":15.09887578,"ECCENTRICITY":0.00419425,"INCLINATION":67.9882,"RA_OF_ASC_NODE":281.7891,"ARG_OF_PERICENTER":346.925,"MEAN_ANOMALY":13.0808,"EPHEMERIS_TYPE":0,"CLASSIFICATION_TYPE":"U","NORAD_CAT_ID":26474,"ELEMENT_SET_NO":999,"REV_AT_EPOCH":39928,"BSTAR":0.00014525965,"MEAN_MOTION_DOT":2.267e-5,"MEAN_MOTION_DDOT":0},{"OBJECT_NAME":"ENVISAT","OBJECT_ID":"2002-009A","EPOCH":"2026-04-20T21:05:17.851776","MEAN_MOTION":14.39050482,"ECCENTRICITY":0.00011667,"INCLINATION":98.3792,"RA_OF_ASC_NODE":63.49,"ARG_OF_PERICENTER":86.0326,"MEAN_ANOMALY":293.2641,"EPHEMERIS_TYPE":0,"CLASSIFICATION_TYPE":"U","NORAD_CAT_ID":27386,"ELEMENT_SET_NO":999,"REV_AT_EPOCH":26524,"BSTAR":3.3850998e-5,"MEAN_MOTION_DOT":6.2e-7,"MEAN_MOTION_DDOT":0},{"OBJECT_NAME":"IDEFIX & ARIANE 42P R/B","OBJECT_ID":"2002-021B","EPOCH":"2026-04-20T20:48:20.663712","MEAN_MOTION":14.3105288,"ECCENTRICITY":0.00129431,"INCLINATION":98.5916,"RA_OF_ASC_NODE":48.982,"ARG_OF_PERICENTER":65.4382,"MEAN_ANOMALY":294.8149,"EPHEMERIS_TYPE":0,"CLASSIFICATION_TYPE":"U","NORAD_CAT_ID":27422,"ELEMENT_SET_NO":999,"REV_AT_EPOCH":25005,"BSTAR":8.2101229e-5,"MEAN_MOTION_DOT":1.73e-6,"MEAN_MOTION_DDOT":0},{"OBJECT_NAME":"AQUA","OBJECT_ID":"2002-022A","EPOCH":"2026-04-20T21:41:50.388288","MEAN_MOTION":14.6206565,"ECCENTRICITY":0.00019369,"INCLINATION":98.4239,"RA_OF_ASC_NODE":79.0608,"ARG_OF_PERICENTER":101.4033,"MEAN_ANOMALY":282.0282,"EPHEMERIS_TYPE":0,"CLASSIFICATION_TYPE":"U","NORAD_CAT_ID":27424,"ELEMENT_SET_NO":999,"REV_AT_EPOCH":27490,"BSTAR":0.00013198875,"MEAN_MOTION_DOT":6.13e-6,"MEAN_MOTION_DDOT":0},{"OBJECT_NAME":"CZ-4B R/B","OBJECT_ID":"2002-024C","EPOCH":"2026-04-20T21:33:25.177248","MEAN_MOTION":14.14554894,"ECCENTRICITY":0.00490518,"INCLINATION":98.8754,"RA_OF_ASC_NODE":164.0747,"ARG_OF_PERICENTER":262.9245,"MEAN_ANOMALY":271.25,"EPHEMERIS_TYPE":0,"CLASSIFICATION_TYPE":"U","NORAD_CAT_ID":27432,"ELEMENT_SET_NO":999,"REV_AT_EPOCH":23520,"BSTAR":2.8415608e-5,"MEAN_MOTION_DOT":1.0e-7,"MEAN_MOTION_DDOT":0},{"OBJECT_NAME":"MIDORI II (ADEOS-II)","OBJECT_ID":"2002-056A","EPOCH":"2026-04-20T21:01:33.330144","MEAN_MOTION":14.29315412,"ECCENTRICITY":5.528e-5,"INCLINATION":98.7837,"RA_OF_ASC_NODE":69.665,"ARG_OF_PERICENTER":146.7627,"MEAN_ANOMALY":213.3589,"EPHEMERIS_TYPE":0,"CLASSIFICATION_TYPE":"U","NORAD_CAT_ID":27597,"ELEMENT_SET_NO":999,"REV_AT_EPOCH":21632,"BSTAR":9.6069631e-5,"MEAN_MOTION_DOT":1.99e-6,"MEAN_MOTION_DDOT":0},{"OBJECT_NAME":"H-2A R/B","OBJECT_ID":"2002-056E","EPOCH":"2026-04-20T22:12:46.479744","MEAN_MOTION":14.33789775,"ECCENTRICITY":0.00710172,"INCLINATION":98.3271,"RA_OF_ASC_NODE":69.7025,"ARG_OF_PERICENTER":36.604,"MEAN_ANOMALY":11.9295,"EPHEMERIS_TYPE":0,"CLASSIFICATION_TYPE":"U","NORAD_CAT_ID":27601,"ELEMENT_SET_NO":999,"REV_AT_EPOCH":22016,"BSTAR":9.6970821e-5,"MEAN_MOTION_DOT":2.36e-6,"MEAN_MOTION_DDOT":0},{"OBJECT_NAME":"CZ-4B R/B","OBJECT_ID":"2003-049C","EPOCH":"2026-04-20T22:48:26.389152","MEAN_MOTION":14.55056139,"ECCENTRICITY":0.00493142,"INCLINATION":98.69,"RA_OF_ASC_NODE":107.5235,"ARG_OF_PERICENTER":102.4575,"MEAN_ANOMALY":258.2145,"EPHEMERIS_TYPE":0,"CLASSIFICATION_TYPE":"U","NORAD_CAT_ID":28059,"ELEMENT_SET_NO":999,"REV_AT_EPOCH":19274,"BSTAR":7.2504159e-5,"MEAN_MOTION_DOT":2.66e-6,"MEAN_MOTION_DDOT":0},{"OBJECT_NAME":"CZ-2C R/B","OBJECT_ID":"2004-012C","EPOCH":"2026-04-20T22:37:47.550144","MEAN_MOTION":15.69713768,"ECCENTRICITY":0.00139566,"INCLINATION":97.7135,"RA_OF_ASC_NODE":180.3931,"ARG_OF_PERICENTER":152.5794,"MEAN_ANOMALY":207.6206,"EPHEMERIS_TYPE":0,"CLASSIFICATION_TYPE":"U","NORAD_CAT_ID":28222,"ELEMENT_SET_NO":999,"REV_AT_EPOCH":21089,"BSTAR":0.00054495304,"MEAN_MOTION_DOT":0.00065235,"MEAN_MOTION_DDOT":0},{"OBJECT_NAME":"SL-16 R/B","OBJECT_ID":"2004-021B","EPOCH":"2026-04-20T19:31:51.492288","MEAN_MOTION":14.1460551,"ECCENTRICITY":0.00066608,"INCLINATION":70.9995,"RA_OF_ASC_NODE":144.0953,"ARG_OF_PERICENTER":315.2909,"MEAN_ANOMALY":44.7675,"EPHEMERIS_TYPE":0,"CLASSIFICATION_TYPE":"U","NORAD_CAT_ID":28353,"ELEMENT_SET_NO":999,"REV_AT_EPOCH":12879,"BSTAR":-5.0933953e-5,"MEAN_MOTION_DOT":-1.46e-6,"MEAN_MOTION_DDOT":0},{"OBJECT_NAME":"CZ-4B R/B","OBJECT_ID":"2004-035C","EPOCH":"2026-04-20T20:19:59.831328","MEAN_MOTION":15.29747813,"ECCENTRICITY":0.00318758,"INCLINATION":97.3426,"RA_OF_ASC_NODE":144.5896,"ARG_OF_PERICENTER":175.6658,"MEAN_ANOMALY":184.4865,"EPHEMERIS_TYPE":0,"CLASSIFICATION_TYPE":"U","NORAD_CAT_ID":28415,"ELEMENT_SET_NO":999,"REV_AT_EPOCH":18635,"BSTAR":0.00022381984,"MEAN_MOTION_DOT":6.471e-5,"MEAN_MOTION_DDOT":0},{"OBJECT_NAME":"CZ-2C R/B","OBJECT_ID":"2004-046B","EPOCH":"2026-04-20T15:01:42.124800","MEAN_MOTION":14.27008245,"ECCENTRICITY":0.01401252,"INCLINATION":98.197,"RA_OF_ASC_NODE":22.9961,"ARG_OF_PERICENTER":31.3136,"MEAN_ANOMALY":329.6297,"EPHEMERIS_TYPE":0,"CLASSIFICATION_TYPE":"U","NORAD_CAT_ID":28480,"ELEMENT_SET_NO":999,"REV_AT_EPOCH":11448,"BSTAR":5.80947e-5,"MEAN_MOTION_DOT":1.16e-6,"MEAN_MOTION_DDOT":0},{"OBJECT_NAME":"ARIANE 5 R/B","OBJECT_ID":"2004-049H","EPOCH":"2026-04-20T17:41:13.829568","MEAN_MOTION":14.85343792,"ECCENTRICITY":0.00833458,"INCLINATION":98.2684,"RA_OF_ASC_NODE":280.7856,"ARG_OF_PERICENTER":214.0732,"MEAN_ANOMALY":145.5115,"EPHEMERIS_TYPE":0,"CLASSIFICATION_TYPE":"U","NORAD_CAT_ID":28499,"ELEMENT_SET_NO":999,"REV_AT_EPOCH":15203,"BSTAR":7.5311397e-5,"MEAN_MOTION_DOT":6.23e-6,"MEAN_MOTION_DDOT":0},{"OBJECT_NAME":"CZ-2D R/B","OBJECT_ID":"2005-024B","EPOCH":"2026-04-20T19:05:15.563328","MEAN_MOTION":15.63950237,"ECCENTRICITY":0.00039784,"INCLINATION":97.3547,"RA_OF_ASC_NODE":127.604,"ARG_OF_PERICENTER":184.5657,"MEAN_ANOMALY":175.5567,"EPHEMERIS_TYPE":0,"CLASSIFICATION_TYPE":"U","NORAD_CAT_ID":28738,"ELEMENT_SET_NO":999,"REV_AT_EPOCH":14635,"BSTAR":0.00040474286,"MEAN_MOTION_DOT":0.00038083,"MEAN_MOTION_DDOT":0}]
