HELIOS 1B               
1 25977U 99064A   26110.61381917  .00000978  00000+0  11339-3 0  9997
2 25977  98.1654  14.0825 0000535  46.8321 313.2939 14.87846796691491
TERRA                   
1 25994U 99068A   26110.91058001  .00000269  00000+0  63784-4 0  9993
2 25994  97.9511 162.7139 0003436  66.6958  38.0650 14.61056243401243
SL-16 R/B               
1 26070U 00006B   26110.83800061  .00000038  00000+0  43341-4 0  9996
2 26070  71.0043   9.2127 0014704 121.6420 238.6140 14.15828431354525
TITAN 4B R/B            
1 26474U 00047B   26110.89760607  .00002267  00000+0  14526-3 0  9994
2 26474  67.9882 281.7891 0041942 346.9250  13.0808 15.09887578399289
ENVISAT                 
1 27386U 02009A   26110.87867884  .00000062  00000+0  33851-4 0  9994
2 27386  98.3792  63.4900 0001166  86.0326 293.2641 14.39050482265249
IDEFIX & ARIANE 42P R/B 
1 27422U 02021B   26110.86690583  .00000173  00000+0  82101-4 0  9993
2 27422  98.5916  48.9820 0012943  65.4382 294.8149 14.31052880250056
AQUA                    
1 27424U 02022A   26110.90405542  .00000613  00000+0  13199-3 0  9999
2 27424  98.4239  79.0608 0001936 101.4033 282.0282 14.62065650274908
CZ-4B R/B               
1 27432U 02024C   26110.89820807  .00000010  00000+0  28416-4 0  9993
2 27432  98.8754 164.0747 0049051 262.9245 271.2500 14.14554894235203
MIDORI II (ADEOS-II)    
1 27597U 02056A   26110.87608021  .00000199  00000+0  96070-4 0  9999
2 27597  98.7837  69.6650 0000552 146.7627 213.3589 14.29315412216328
H-2A R/B                
1 27601U 02056E   26110.92553796  .00000236  00000+0  96971-4 0  9991
2 27601  98.3271  69.7025 0071017  36.6040  11.9295 14.33789775220164
CZ-4B R/B               
1 28059U 03049C   26110.95030543  .00000266  00000+0  72504-4 0  9994
2 28059  98.6900 107.5235 0049314 102.4575 258.2145 14.55056139192745
CZ-2C R/B               
1 28222U 04012C   26110.94291146  .00065235  00000+0  54495-3 0  9999
2 28222  97.7135 180.3931 0013956 152.5794 207.6206 15.69713768210898
SL-16 R/B               
1 28353U 04021B   26110.81379042 -.00000146  00000+0 -50934-4 0  9999
2 28353  70.9995 144.0953 0006660 315.2909  44.7675 14.14605510128792
CZ-4B R/B               
1 28415U 04035C   26110.84722027  .00006471  00000+0  22382-3 0  9991
2 28415  97.3426 144.5896 0031875 175.6658 184.4865 15.29747813186358
CZ-2C R/B               
1 28480U 04046B   26110.62618200  .00000116  00000+0  58095-4 0  9999
2 28480  98.1970  22.9961 0140125  31.3136 329.6297 14.27008245114486
ARIANE 5 R/B            
1 28499U 04049H   26110.73696562  .00000623  00000+0  75311-4 0  9994
2 28499  98.2684 280.7856 0083345 214.0732 145.5115 14.85343792152038
CZ-2D R/B               
1 28738U 05024B   26110.79531902  .00038083  00000+0  40474-3 0  9998
2 28738  97.3547 127.6040 0003978 184.5657 175.5567 15.63950237146354
